NORAD_CAT_ID,OBJECT_NAME,OBJECT_TYPE,EPOCH,MEAN_MOTION,ECCENTRICITY,INCLINATION,RA_OF_ASC_NODE,ARG_OF_PERICENTER,MEAN_ANOMALY,BSTAR,MEAN_MOTION_DOT,MEAN_MOTION_DDOT,TLE_LINE0,TLE_LINE1,TLE_LINE2,SEMIMAJOR_AXIS,PERIOD,APOGEE,PERIGEE,DECAYED
56490.0,STARLINK-5873,PAYLOAD,2024-06-30 11:01:41,14.98353444,0.0003703,69.9987,220.858,270.2945,89.779,-0.00044023,-5.345e-05,0.0,0 STARLINK-5873,1 56490U 23064AU  24182.45951073 -.00005345  00000-0 -44023-3 0  9995,2 56490  69.9987 220.8580 0003703 270.2945  89.7790 14.98353444 64130,6950.12,96.105,574.559,569.412,0.0
56490.0,STARLINK-5873,PAYLOAD,2024-06-30 12:37:50,14.98330171,0.0003591,69.9988,220.6896,271.9882,88.0866,-2.9403e-05,-4.44e-06,0.0,0 STARLINK-5873,1 56490U 23064AU  24182.52627518 -.00000444  00000-0 -29403-4 0  9998,2 56490  69.9988 220.6896 0003591 271.9882  88.0866 14.98330171 63780,6950.192,96.107,574.553,569.562,0.0
56490.0,STARLINK-5873,PAYLOAD,2024-07-01 04:39:10,14.98335857,0.0003359,69.9987,219.0064,270.8,89.2774,8.5061e-05,9.22e-06,0.0,0 STARLINK-5873,1 56490U 23064AU  24183.19386810  .00000922  00000-0  85061-4 0  9990,2 56490  69.9987 219.0064 0003359 270.8000  89.2774 14.98335857 64249,6950.175,96.107,574.374,569.705,0.0
56490.0,STARLINK-5873,PAYLOAD,2024-07-01 12:39:50,14.98339767,0.0003362,69.9988,218.1648,270.8389,89.2384,0.0001203,1.343e-05,0.0,0 STARLINK-5873,1 56490U 23064AU  24183.52766318  .00001343  00000-0  12030-3 0  9995,2 56490  69.9988 218.1648 0003362 270.8389  89.2384 14.98339767 63938,6950.163,96.106,574.364,569.691,0.0
56490.0,STARLINK-5873,PAYLOAD,2024-07-01 19:04:22,14.98342654,0.0003374,69.999,217.4915,271.4489,88.6283,-0.00011948,-1.519e-05,0.0,0 STARLINK-5873,1 56490U 23064AU  24183.79470587 -.00001519  00000-0 -11948-3 0  9998,2 56490  69.9990 217.4915 0003374 271.4489  88.6283 14.98342654 63975,6950.154,96.106,574.364,569.674,0.0
56490.0,STARLINK-5873,PAYLOAD,2024-07-02 04:41:11,14.98325239,0.0003176,70.0005,216.4831,269.6954,90.3841,4.3186e-05,4.22e-06,0.0,0 STARLINK-5873,1 56490U 23064AU  24184.19527479  .00000422  00000-0  43186-4 0  9996,2 56490  70.0005 216.4831 0003176 269.6954  90.3841 14.98325239 64394,6950.208,96.107,574.28,569.865,0.0
56490.0,STARLINK-5873,PAYLOAD,2024-07-02 12:41:52,14.98323308,0.0003195,69.9992,215.6406,268.4817,91.5976,-1.6055e-05,-2.85e-06,0.0,0 STARLINK-5873,1 56490U 23064AU  24184.52907787 -.00000285  00000-0 -16055-4 0  9991,2 56490  69.9992 215.6406 0003195 268.4817  91.5976 14.98323308 64084,6950.214,96.107,574.299,569.858,0.0
56490.0,STARLINK-5873,PAYLOAD,2024-07-02 19:06:24,14.98326804,0.0003329,69.9988,214.9667,269.8427,90.235,2.7134e-05,2.31e-06,0.0,0 STARLINK-5873,1 56490U 23064AU  24184.79611517  .00000231  00000-0  27134-4 0  9992,2 56490  69.9988 214.9667 0003329 269.8427  90.2350 14.98326804 64122,6950.203,96.107,574.381,569.754,0.0
56490.0,STARLINK-5873,PAYLOAD,2024-07-03 04:43:12,14.98334289,0.0003465,69.9985,213.9565,269.3426,90.7336,-6.9817e-05,-9.26e-06,0.0,0 STARLINK-5873,1 56490U 23064AU  24185.19667200 -.00000926  00000-0 -69817-4 0  9994,2 56490  69.9985 213.9565 0003465 269.3426  90.7336 14.98334289 64541,6950.18,96.107,574.453,569.636,0.0
56490.0,STARLINK-5873,PAYLOAD,2024-07-03 19:08:24,14.98335278,0.0003457,69.9986,212.4415,270.4921,89.5842,-5.6224e-05,-7.64e-06,0.0,0 STARLINK-5873,1 56490U 23064AU  24185.79750948 -.00000764  00000-0 -56224-4 0  9990,2 56490  69.9986 212.4415 0003457 270.4921  89.5842 14.98335278 64271,6950.177,96.107,574.444,569.639,0.0
56490.0,STARLINK-5873,PAYLOAD,2024-07-04 04:45:13,14.98324615,0.0003379,69.9986,211.4317,269.8635,90.2137,8.0758e-05,8.71e-06,0.0,0 STARLINK-5873,1 56490U 23064AU  24186.19807322  .00000871  00000-0  80758-4 0  9990,2 56490  69.9986 211.4317 0003379 269.8635  90.2137 14.98324615 64693,6950.21,96.107,574.423,569.726,0.0
56490.0,STARLINK-5873,PAYLOAD,2024-07-04 11:09:45,14.98327567,0.0003406,69.9986,210.7584,269.6594,90.4174,7.1267e-05,7.57e-06,0.0,0 STARLINK-5873,1 56490U 23064AU  24186.46511211  .00000757  00000-0  71267-4 0  9997,2 56490  69.9986 210.7584 0003406 269.6594  90.4174 14.98327567 64371,6950.2,96.107,574.433,569.698,0.0
56490.0,STARLINK-5873,PAYLOAD,2024-07-04 19:10:25,14.98329213,0.000341,69.9985,209.9167,269.7173,90.3595,5.7041e-05,5.88e-06,0.0,0 STARLINK-5873,1 56490U 23064AU  24186.79891162  .00000588  00000-0  57041-4 0  9995,2 56490  69.9985 209.9167 0003410 269.7173  90.3595 14.98329213 64428,6950.195,96.107,574.43,569.69,0.0
56490.0,STARLINK-5873,PAYLOAD,2024-07-05 04:47:14,14.98330401,0.0003394,69.9986,208.9069,269.6246,90.4524,3.611e-05,3.38e-06,0.0,0 STARLINK-5873,1 56490U 23064AU  24187.19947155  .00000338  00000-0  36110-4 0  9991,2 56490  69.9986 208.9069 0003394 269.6246  90.4524 14.98330401 64840,6950.192,96.107,574.416,569.698,0.0
56490.0,STARLINK-5873,PAYLOAD,2024-07-05 11:11:46,14.98332037,0.0003407,69.9986,208.2336,269.6319,90.445,3.231e-05,2.92e-06,0.0,0 STARLINK-5873,1 56490U 23064AU  24187.46651032  .00000292  00000-0  32310-4 0  9994,2 56490  69.9986 208.2336 0003407 269.6319  90.4450 14.98332037 64526,6950.187,96.107,574.42,569.684,0.0
56490.0,STARLINK-5873,PAYLOAD,2024-07-05 19:12:26,14.98331264,0.0003402,69.9986,207.3919,269.6492,90.4277,1.913e-05,1.35e-06,0.0,0 STARLINK-5873,1 56490U 23064AU  24187.80031088  .00000135  00000-0  19130-4 0  9996,2 56490  69.9986 207.3919 0003402 269.6492  90.4277 14.98331264 64573,6950.189,96.107,574.418,569.69,0.0
56490.0,STARLINK-5873,PAYLOAD,2024-07-06 04:49:15,14.98330918,0.0003402,69.9986,206.3819,269.3308,90.7461,4.4798e-05,4.42e-06,0.0,0 STARLINK-5873,1 56490U 23064AU  24188.20087001  .00000442  00000-0  44798-4 0  9996,2 56490  69.9986 206.3819 0003402 269.3308  90.7461 14.98330918 64993,6950.19,96.107,574.42,569.691,0.0
56490.0,STARLINK-5873,PAYLOAD,2024-07-06 11:13:47,14.9833159,0.000342,69.9988,205.7088,269.5785,90.4982,2.9418e-05,2.58e-06,0.0,0 STARLINK-5873,1 56490U 23064AU  24188.46790984  .00000258  00000-0  29418-4 0  9992,2 56490  69.9988 205.7088 0003420 269.5785  90.4982 14.98331590 64674,6950.188,96.107,574.43,569.676,0.0
56490.0,STARLINK-5873,PAYLOAD,2024-07-07 04:51:16,14.98330602,0.0003388,69.9991,203.8572,269.6411,90.436,1.4791e-05,8.3e-07,0.0,0 STARLINK-5873,1 56490U 23064AU  24189.20227014  .00000083  00000-0  14791-4 0  9998,2 56490  69.9991 203.8572 0003388 269.6411  90.4360 14.98330602 65141,6950.191,96.107,574.411,569.701,0.0
56490.0,STARLINK-5873,PAYLOAD,2024-07-07 11:15:48,14.98331054,0.000342,69.9992,203.1841,269.9107,90.166,1.5836e-06,-7.4e-07,0.0,0 STARLINK-5873,1 56490U 23064AU  24189.46931012 -.00000074  00000-0  15836-5 0  9999,2 56490  69.9992 203.1841 0003420 269.9107  90.1660 14.98331054 64822,6950.19,96.107,574.432,569.678,0.0
56490.0,STARLINK-5873,PAYLOAD,2024-07-08 09:41:41,14.98330744,0.0003381,69.9995,200.828,269.3621,90.7151,2.0165e-05,1.48e-06,0.0,0 STARLINK-5873,1 56490U 23064AU  24190.40394933  .00000148  00000-0  20165-4 0  9991,2 56490  69.9995 200.8280 0003381 269.3621  90.7151 14.98330744 64968,6950.191,96.107,574.405,569.706,0.0
56490.0,STARLINK-5873,PAYLOAD,2024-07-08 17:42:21,14.98331203,0.0003382,69.9995,199.9864,269.4208,90.6563,2.7067e-05,2.3e-06,0.0,0 STARLINK-5873,1 56490U 23064AU  24190.73774870  .00000230  00000-0  27067-4 0  9999,2 56490  69.9995 199.9864 0003382 269.4208  90.6563 14.98331203 65011,6950.189,96.107,574.405,569.704,0.0
56490.0,STARLINK-5873,PAYLOAD,2024-07-09 11:19:50,14.98332429,0.0003396,69.9994,198.1349,269.4319,90.6451,4.7441e-05,4.73e-06,0.0,0 STARLINK-5873,1 56490U 23064AU  24191.47210654  .00000473  00000-0  47441-4 0  9993,2 56490  69.9994 198.1349 0003396 269.4319  90.6451 14.98332429 65485,6950.185,96.107,574.411,569.69,0.0
56490.0,STARLINK-5873,PAYLOAD,2024-07-10 04:57:19,14.98326843,0.0003319,69.9995,196.2832,268.1141,91.9638,-1.6502e-05,-2.9e-06,0.0,0 STARLINK-5873,1 56490U 23064AU  24192.20647222 -.00000290  00000-0 -16502-4 0  9993,2 56490  69.9995 196.2832 0003319 268.1141  91.9638 14.98326843 65592,6950.203,96.107,574.374,569.761,0.0
56490.0,STARLINK-5873,PAYLOAD,2024-07-10 09:45:43,14.98326383,0.0003344,69.9995,195.7782,268.9237,91.1539,-2.2762e-05,-3.65e-06,0.0,0 STARLINK-5873,1 56490U 23064AU  24192.40675308 -.00000365  00000-0 -22762-4 0  9999,2 56490  69.9995 195.7782 0003344 268.9237  91.1539 14.98326383 65267,6950.204,96.107,574.393,569.745,0.0
56490.0,STARLINK-5873,PAYLOAD,2024-07-11 04:59:20,14.98329607,0.0003396,69.9993,193.7581,268.8282,91.2488,4.1136e-06,-4.4e-07,0.0,0 STARLINK-5873,1 56490U 23064AU  24193.20787085 -.00000044  00000-0  41136-5 0  9994,2 56490  69.9993 193.7581 0003396 268.8282  91.2488 14.98329607 65745,6950.194,96.107,574.419,569.699,0.0
56490.0,STARLINK-5873,PAYLOAD,2024-07-11 09:47:44,14.98330975,0.0003399,69.9994,193.2532,268.8647,91.2123,6.4232e-06,-1.6e-07,0.0,0 STARLINK-5873,1 56490U 23064AU  24193.40814992 -.00000016  00000-0  64232-5 0  9995,2 56490  69.9994 193.2532 0003399 268.8647  91.2123 14.98330975 65415,6950.19,96.107,574.417,569.693,0.0
56490.0,STARLINK-5873,PAYLOAD,2024-07-11 17:48:24,14.98330783,0.0003405,69.9994,192.4113,268.5456,91.5313,5.4524e-05,5.58e-06,0.0,0 STARLINK-5873,1 56490U 23064AU  24193.74194863  .00000558  00000-0  54524-4 0  9992,2 56490  69.9994 192.4113 0003405 268.5456  91.5313 14.98330783 65460,6950.19,96.107,574.422,569.689,0.0
56490.0,STARLINK-5873,PAYLOAD,2024-07-12 05:01:20,14.98331501,0.000347,69.9993,191.2336,269.7218,90.3544,8.5738e-05,9.3e-06,0.0,0 STARLINK-5873,1 56490U 23064AU  24194.20926732  .00000930  00000-0  85738-4 0  9997,2 56490  69.9993 191.2336 0003470 269.7218  90.3544 14.98331501 65893,6950.188,96.107,574.465,569.642,0.0
56490.0,STARLINK-5873,PAYLOAD,2024-07-12 09:49:44,14.98333812,0.0003446,69.9994,190.7286,269.6475,90.4289,0.00010775,1.193e-05,0.0,0 STARLINK-5873,1 56490U 23064AU  24194.40954505  .00001193  00000-0  10775-3 0  9998,2 56490  69.9994 190.7286 0003446 269.6475  90.4289 14.98333812 65567,6950.181,96.107,574.441,569.651,0.0
